[
    {
        "Altitude(m)": 557914.1565769104,
        "Argument of Periapsis(deg)": 0.006622991110713501,
        "Eccentricity": 0.0,
        "Inclination(deg)": 53.0,
        "Latitude(deg)": 44.44993405212603,
        "Longitude(deg)": -168.45073299651935,
        "Mean Anomaly(deg)": 61.00069286757756,
        "RAAN(deg)": 244.99014336852804,
        "Satellite Name": "Starlink Shell 1 1081",
        "Satellite Number": 1081,
        "Semi-Major Axis(m)": 6931778.249405717,
        "Time(s)": 190
    },
    {
        "Altitude(m)": 557990.046752177,
        "Argument of Periapsis(deg)": 0.0069715695902247375,
        "Eccentricity": 0.0,
        "Inclination(deg)": 53.0,
        "Latitude(deg)": 44.78751603179697,
        "Longitude(deg)": -167.75115877361483,
        "Mean Anomaly(deg)": 61.62752407113431,
        "RAAN(deg)": 244.98962459845058,
        "Satellite Name": "Starlink Shell 1 1081",
        "Satellite Number": 1081,
        "Semi-Major Axis(m)": 6931778.249405717,
        "Time(s)": 200
    },
    {
        "Altitude(m)": 558065.0350156368,
        "Argument of Periapsis(deg)": 0.007320148069735974,
        "Eccentricity": 0.0,
        "Inclination(deg)": 53.0,
        "Latitude(deg)": 45.12021719795856,
        "Longitude(deg)": -167.04296890294634,
        "Mean Anomaly(deg)": 62.25435527469101,
        "RAAN(deg)": 244.9891058283731,
        "Satellite Name": "Starlink Shell 1 1081",
        "Satellite Number": 1081,
        "Semi-Major Axis(m)": 6931778.249405717,
        "Time(s)": 210
    },
    {
        "Altitude(m)": 558139.0745012029,
        "Argument of Periapsis(deg)": 0.007668726549247212,
        "Eccentricity": 0.0,
        "Inclination(deg)": 53.0,
        "Latitude(deg)": 45.44792475744339,
        "Longitude(deg)": -166.32609122433828,
        "Mean Anomaly(deg)": 62.881186478247706,
        "RAAN(deg)": 244.98858705829562,
        "Satellite Name": "Starlink Shell 1 1081",
        "Satellite Number": 1081,
        "Semi-Major Axis(m)": 6931778.249405717,
        "Time(s)": 220
    },
    {
        "Altitude(m)": 558212.1190317984,
        "Argument of Periapsis(deg)": 0.00801730502875845,
        "Eccentricity": 0.0,
        "Inclination(deg)": 53.0,
        "Latitude(deg)": 45.77052436540388,
        "Longitude(deg)": -165.60045987200854,
        "Mean Anomaly(deg)": 63.50801768180446,
        "RAAN(deg)": 244.98806828821816,
        "Satellite Name": "Starlink Shell 1 1081",
        "Satellite Number": 1081,
        "Semi-Major Axis(m)": 6931778.249405717,
        "Time(s)": 230
    },
    {
        "Altitude(m)": 558284.1231423587,
        "Argument of Periapsis(deg)": 0.008365883508269684,
        "Eccentricity": 0.0,
        "Inclination(deg)": 53.0,
        "Latitude(deg)": 46.08790019574895,
        "Longitude(deg)": -164.86601526876794,
        "Mean Anomaly(deg)": 64.13484888536115,
        "RAAN(deg)": 244.98754951814067,
        "Satellite Name": "Starlink Shell 1 1081",
        "Satellite Number": 1081,
        "Semi-Major Axis(m)": 6931778.249405717,
        "Time(s)": 240
    },
    {
        "Altitude(m)": 558355.0421024994,
        "Argument of Periapsis(deg)": 0.008714461987780921,
        "Eccentricity": 0.0,
        "Inclination(deg)": 53.0,
        "Latitude(deg)": 46.39993502044568,
        "Longitude(deg)": -164.12270564741428,
        "Mean Anomaly(deg)": 64.76168008891784,
        "RAAN(deg)": 244.98703074806318,
        "Satellite Name": "Starlink Shell 1 1081",
        "Satellite Number": 1081,
        "Semi-Major Axis(m)": 6931778.249405717,
        "Time(s)": 250
    },
    {
        "Altitude(m)": 558424.831938741,
        "Argument of Periapsis(deg)": 0.009063040467292158,
        "Eccentricity": 0.0,
        "Inclination(deg)": 53.0,
        "Latitude(deg)": 46.70651029807906,
        "Longitude(deg)": -163.37048707213108,
        "Mean Anomaly(deg)": 65.38851129247459,
        "RAAN(deg)": 244.98651197798577,
        "Satellite Name": "Starlink Shell 1 1081",
        "Satellite Number": 1081,
        "Semi-Major Axis(m)": 6931778.249405717,
        "Time(s)": 260
    },
    {
        "Altitude(m)": 558493.4494563969,
        "Argument of Periapsis(deg)": 0.009411618946803396,
        "Eccentricity": 0.0,
        "Inclination(deg)": 53.0,
        "Latitude(deg)": 47.00750627205146,
        "Longitude(deg)": -162.60932347106834,
        "Mean Anomaly(deg)": 66.0153424960313,
        "RAAN(deg)": 244.98599320790828,
        "Satellite Name": "Starlink Shell 1 1081",
        "Satellite Number": 1081,
        "Semi-Major Axis(m)": 6931778.249405717,
        "Time(s)": 270
    },
    {
        "Altitude(m)": 558560.8522609911,
        "Argument of Periapsis(deg)": 0.009760197426314633,
        "Eccentricity": 0.0,
        "Inclination(deg)": 53.0,
        "Latitude(deg)": 47.302802078779564,
        "Longitude(deg)": -161.839188191016,
        "Mean Anomaly(deg)": 66.64217369958804,
        "RAAN(deg)": 244.98547443783076,
        "Satellite Name": "Starlink Shell 1 1081",
        "Satellite Number": 1081,
        "Semi-Major Axis(m)": 6931778.249405717,
        "Time(s)": 280
    },
    {
        "Altitude(m)": 558626.9987793206,
        "Argument of Periapsis(deg)": 0.01010877590582587,
        "Eccentricity": 0.0,
        "Inclination(deg)": 53.0,
        "Latitude(deg)": 47.592275866207906,
        "Longitude(deg)": -161.06006404618856,
        "Mean Anomaly(deg)": 67.26900490314472,
        "RAAN(deg)": 244.98495566775335,
        "Satellite Name": "Starlink Shell 1 1081",
        "Satellite Number": 1081,
        "Semi-Major Axis(m)": 6931778.249405717,
        "Time(s)": 290
    },
    {
        "Altitude(m)": 558691.8482800351,
        "Argument of Periapsis(deg)": 0.010457354385337106,
        "Eccentricity": 0.0,
        "Inclination(deg)": 53.0,
        "Latitude(deg)": 47.875804922929234,
        "Longitude(deg)": -160.27194337146858,
        "Mean Anomaly(deg)": 67.89583610670142,
        "RAAN(deg)": 244.98443689767586,
        "Satellite Name": "Starlink Shell 1 1081",
        "Satellite Number": 1081,
        "Semi-Major Axis(m)": 6931778.249405717,
        "Time(s)": 300
    },
    {
        "Altitude(m)": 558755.3608938159,
        "Argument of Periapsis(deg)": 0.010805932864848343,
        "Eccentricity": 0.0,
        "Inclination(deg)": 53.0,
        "Latitude(deg)": 48.15326581815901,
        "Longitude(deg)": -159.47482959016398,
        "Mean Anomaly(deg)": 68.52266731025817,
        "RAAN(deg)": 244.98391812759837,
        "Satellite Name": "Starlink Shell 1 1081",
        "Satellite Number": 1081,
        "Semi-Major Axis(m)": 6931778.249405717,
        "Time(s)": 310
    },
    {
        "Altitude(m)": 558817.497633098,
        "Argument of Periapsis(deg)": 0.01115451134435958,
        "Eccentricity": 0.0,
        "Inclination(deg)": 53.0,
        "Latitude(deg)": 48.42453455275252,
        "Longitude(deg)": -158.668737267421,
        "Mean Anomaly(deg)": 69.14949851381488,
        "RAAN(deg)": 244.9833993575209,
        "Satellite Name": "Starlink Shell 1 1081",
        "Satellite Number": 1081,
        "Semi-Major Axis(m)": 6931778.249405717,
        "Time(s)": 320
    },
    {
        "Altitude(m)": 558878.2204113445,
        "Argument of Periapsis(deg)": 0.011503089823870818,
        "Eccentricity": 0.0,
        "Inclination(deg)": 53.0,
        "Latitude(deg)": 48.68948672140418,
        "Longitude(deg)": -157.85369215875357,
        "Mean Anomaly(deg)": 69.77632971737162,
        "RAAN(deg)": 244.98288058744342,
        "Satellite Name": "Starlink Shell 1 1081",
        "Satellite Number": 1081,
        "Semi-Major Axis(m)": 6931778.249405717,
        "Time(s)": 330
    },
    {
        "Altitude(m)": 558937.4920618418,
        "Argument of Periapsis(deg)": 0.011851668303382053,
        "Eccentricity": 0.0,
        "Inclination(deg)": 53.0,
        "Latitude(deg)": 48.947997686102774,
        "Longitude(deg)": -157.02973276285672,
        "Mean Anomaly(deg)": 70.40316092092826,
        "RAAN(deg)": 244.98236181736596,
        "Satellite Name": "Starlink Shell 1 1081",
        "Satellite Number": 1081,
        "Semi-Major Axis(m)": 6931778.249405717,
        "Time(s)": 340
    },
    {
        "Altitude(m)": 558995.2763560611,
        "Argument of Periapsis(deg)": 0.012200246782893292,
        "Eccentricity": 0.0,
        "Inclination(deg)": 53.0,
        "Latitude(deg)": 49.199942760837,
        "Longitude(deg)": -156.1969103489725,
        "Mean Anomaly(deg)": 71.029992124485,
        "RAAN(deg)": 244.9818430472885,
        "Satellite Name": "Starlink Shell 1 1081",
        "Satellite Number": 1081,
        "Semi-Major Axis(m)": 6931778.249405717,
        "Time(s)": 350
    },
    {
        "Altitude(m)": 559051.5380215084,
        "Argument of Periapsis(deg)": 0.012548825262404526,
        "Eccentricity": 0.0,
        "Inclination(deg)": 53.0,
        "Latitude(deg)": 49.445197407472385,
        "Longitude(deg)": -155.35528896742377,
        "Mean Anomaly(deg)": 71.65682332804175,
        "RAAN(deg)": 244.981324277211,
        "Satellite Name": "Starlink Shell 1 1081",
        "Satellite Number": 1081,
        "Semi-Major Axis(m)": 6931778.249405717,
        "Time(s)": 360
    },
    {
        "Altitude(m)": 559106.2427590955,
        "Argument of Periapsis(deg)": 0.012897403741915765,
        "Eccentricity": 0.0,
        "Inclination(deg)": 53.0,
        "Latitude(deg)": 49.683637442635415,
        "Longitude(deg)": -154.50494695167978,
        "Mean Anomaly(deg)": 72.28365453159844,
        "RAAN(deg)": 244.9808055071335,
        "Satellite Name": "Starlink Shell 1 1081",
        "Satellite Number": 1081,
        "Semi-Major Axis(m)": 6931778.249405717,
        "Time(s)": 370
    }
]